CCSDS_OMM_VERS = 2.0
CREATION_DATE  = 
ORIGINATOR     = 

OBJECT_NAME    = ATLAS CENTAUR 2
OBJECT_ID      = 1963-047A
CENTER_NAME    = EARTH
REF_FRAME      = TEME
TIME_SYSTEM    = UTC
MEAN_ELEMENT_THEORY = SGP/SGP4

EPOCH          = 2026-04-03T22:10:41.430432
MEAN_MOTION    = 14.12185138
ECCENTRICITY   = .05471366
INCLINATION    = 30.3578
RA_OF_ASC_NODE = 54.6075
ARG_OF_PERICENTER = 302.6897
MEAN_ANOMALY   = 52.2071

EPHEMERIS_TYPE = 0
CLASSIFICATION_TYPE = U
NORAD_CAT_ID   = 694
ELEMENT_SET_NO = 999
REV_AT_EPOCH   = 13519
BSTAR          = .54845043E-3
MEAN_MOTION_DOT = .4583E-4
MEAN_MOTION_DDOT = 0

CCSDS_OMM_VERS = 2.0
CREATION_DATE  = 
ORIGINATOR     = 

OBJECT_NAME    = THOR AGENA D R/B
OBJECT_ID      = 1964-002A
CENTER_NAME    = EARTH
REF_FRAME      = TEME
TIME_SYSTEM    = UTC
MEAN_ELEMENT_THEORY = SGP/SGP4

EPOCH          = 2026-04-03T22:04:14.410272
MEAN_MOTION    = 14.34034411
ECCENTRICITY   = .00328779
INCLINATION    = 99.1209
RA_OF_ASC_NODE = 108.6315
ARG_OF_PERICENTER = 183.3063
MEAN_ANOMALY   = 176.7908

EPHEMERIS_TYPE = 0
CLASSIFICATION_TYPE = U
NORAD_CAT_ID   = 733
ELEMENT_SET_NO = 999
REV_AT_EPOCH   = 24191
BSTAR          = .13294285E-3
MEAN_MOTION_DOT = .325E-5
MEAN_MOTION_DDOT = 0

CCSDS_OMM_VERS = 2.0
CREATION_DATE  = 
ORIGINATOR     = 

OBJECT_NAME    = SL-3 R/B
OBJECT_ID      = 1964-053B
CENTER_NAME    = EARTH
REF_FRAME      = TEME
TIME_SYSTEM    = UTC
MEAN_ELEMENT_THEORY = SGP/SGP4

EPOCH          = 2026-04-03T19:22:11.783712
MEAN_MOTION    = 14.61387341
ECCENTRICITY   = .00805984
INCLINATION    = 65.0757
RA_OF_ASC_NODE = 257.5944
ARG_OF_PERICENTER = 284.3220
MEAN_ANOMALY   = 74.8941

EPHEMERIS_TYPE = 0
CLASSIFICATION_TYPE = U
NORAD_CAT_ID   = 877
ELEMENT_SET_NO = 999
REV_AT_EPOCH   = 27046
BSTAR          = .11647901E-3
MEAN_MOTION_DOT = .478E-5
MEAN_MOTION_DDOT = 0

CCSDS_OMM_VERS = 2.0
CREATION_DATE  = 
ORIGINATOR     = 

OBJECT_NAME    = SL-8 R/B
OBJECT_ID      = 1967-045B
CENTER_NAME    = EARTH
REF_FRAME      = TEME
TIME_SYSTEM    = UTC
MEAN_ELEMENT_THEORY = SGP/SGP4

EPOCH          = 2026-04-03T21:40:02.565408
MEAN_MOTION    = 14.45643245
ECCENTRICITY   = .0065028
INCLINATION    = 74.0103
RA_OF_ASC_NODE = 301.0023
ARG_OF_PERICENTER = 301.7406
MEAN_ANOMALY   = 57.7424

EPHEMERIS_TYPE = 0
CLASSIFICATION_TYPE = U
NORAD_CAT_ID   = 2802
ELEMENT_SET_NO = 999
REV_AT_EPOCH   = 9266
BSTAR          = .13828696E-3
MEAN_MOTION_DOT = .473E-5
MEAN_MOTION_DDOT = 0

CCSDS_OMM_VERS = 2.0
CREATION_DATE  = 
ORIGINATOR     = 

OBJECT_NAME    = SL-8 R/B
OBJECT_ID      = 1968-040B
CENTER_NAME    = EARTH
REF_FRAME      = TEME
TIME_SYSTEM    = UTC
MEAN_ELEMENT_THEORY = SGP/SGP4

EPOCH          = 2026-04-03T20:44:46.828896
MEAN_MOTION    = 15.03443489
ECCENTRICITY   = .00233293
INCLINATION    = 74.0292
RA_OF_ASC_NODE = 262.2423
ARG_OF_PERICENTER = 75.7327
MEAN_ANOMALY   = 284.6451

EPHEMERIS_TYPE = 0
CLASSIFICATION_TYPE = U
NORAD_CAT_ID   = 3230
ELEMENT_SET_NO = 999
REV_AT_EPOCH   = 9379
BSTAR          = .49356962E-3
MEAN_MOTION_DOT = .6725E-4
MEAN_MOTION_DDOT = 0

CCSDS_OMM_VERS = 2.0
CREATION_DATE  = 
ORIGINATOR     = 

OBJECT_NAME    = OAO 2
OBJECT_ID      = 1968-110A
CENTER_NAME    = EARTH
REF_FRAME      = TEME
TIME_SYSTEM    = UTC
MEAN_ELEMENT_THEORY = SGP/SGP4

EPOCH          = 2026-04-03T04:54:34.479936
MEAN_MOTION    = 14.47322613
ECCENTRICITY   = .00052706
INCLINATION    = 34.9922
RA_OF_ASC_NODE = 128.3459
ARG_OF_PERICENTER = 29.0054
MEAN_ANOMALY   = 331.0929

EPHEMERIS_TYPE = 0
CLASSIFICATION_TYPE = U
NORAD_CAT_ID   = 3597
ELEMENT_SET_NO = 999
REV_AT_EPOCH   = 2265
BSTAR          = .11394889E-3
MEAN_MOTION_DOT = .404E-5
MEAN_MOTION_DDOT = 0

CCSDS_OMM_VERS = 2.0
CREATION_DATE  = 
ORIGINATOR     = 

OBJECT_NAME    = ISIS 1
OBJECT_ID      = 1969-009A
CENTER_NAME    = EARTH
REF_FRAME      = TEME
TIME_SYSTEM    = UTC
MEAN_ELEMENT_THEORY = SGP/SGP4

EPOCH          = 2026-04-03T16:14:32.926272
MEAN_MOTION    = 11.30420961
ECCENTRICITY   = .17077932
INCLINATION    = 88.4493
RA_OF_ASC_NODE = 152.5804
ARG_OF_PERICENTER = 38.7564
MEAN_ANOMALY   = 332.4321

EPHEMERIS_TYPE = 0
CLASSIFICATION_TYPE = U
NORAD_CAT_ID   = 3669
ELEMENT_SET_NO = 999
REV_AT_EPOCH   = 35135
BSTAR          = .14231764E-3
MEAN_MOTION_DOT = .216E-5
MEAN_MOTION_DDOT = 0

CCSDS_OMM_VERS = 2.0
CREATION_DATE  = 
ORIGINATOR     = 

OBJECT_NAME    = SERT 2
OBJECT_ID      = 1970-009A
CENTER_NAME    = EARTH
REF_FRAME      = TEME
TIME_SYSTEM    = UTC
MEAN_ELEMENT_THEORY = SGP/SGP4

EPOCH          = 2026-04-03T19:22:28.483968
MEAN_MOTION    = 13.58732519
ECCENTRICITY   = .00057371
INCLINATION    = 99.2793
RA_OF_ASC_NODE = 35.5310
ARG_OF_PERICENTER = 98.5044
MEAN_ANOMALY   = 316.2867

EPHEMERIS_TYPE = 0
CLASSIFICATION_TYPE = U
NORAD_CAT_ID   = 4327
ELEMENT_SET_NO = 999
REV_AT_EPOCH   = 78330
BSTAR          = .12324512E-3
MEAN_MOTION_DOT = .49E-6
MEAN_MOTION_DDOT = 0

CCSDS_OMM_VERS = 2.0
CREATION_DATE  = 
ORIGINATOR     = 

OBJECT_NAME    = SL-3 R/B
OBJECT_ID      = 1971-028B
CENTER_NAME    = EARTH
REF_FRAME      = TEME
TIME_SYSTEM    = UTC
MEAN_ELEMENT_THEORY = SGP/SGP4

EPOCH          = 2026-04-03T21:25:10.046496
MEAN_MOTION    = 15.63520742
ECCENTRICITY   = .00152432
INCLINATION    = 81.2384
RA_OF_ASC_NODE = 20.8529
ARG_OF_PERICENTER = 183.1018
MEAN_ANOMALY   = 177.0145

EPHEMERIS_TYPE = 0
CLASSIFICATION_TYPE = U
NORAD_CAT_ID   = 5118
ELEMENT_SET_NO = 999
REV_AT_EPOCH   = 99260
BSTAR          = .76850021E-3
MEAN_MOTION_DOT = .72013E-3
MEAN_MOTION_DDOT = 0

CCSDS_OMM_VERS = 2.0
CREATION_DATE  = 
ORIGINATOR     = 

OBJECT_NAME    = ASTEX 1
OBJECT_ID      = 1971-089A
CENTER_NAME    = EARTH
REF_FRAME      = TEME
TIME_SYSTEM    = UTC
MEAN_ELEMENT_THEORY = SGP/SGP4

EPOCH          = 2026-04-03T17:18:57.322656
MEAN_MOTION    = 14.50797203
ECCENTRICITY   = .00156505
INCLINATION    = 92.7083
RA_OF_ASC_NODE = 159.8489
ARG_OF_PERICENTER = 8.9309
MEAN_ANOMALY   = 351.2173

EPHEMERIS_TYPE = 0
CLASSIFICATION_TYPE = U
NORAD_CAT_ID   = 5560
ELEMENT_SET_NO = 999
REV_AT_EPOCH   = 86593
BSTAR          = .20365273E-3
MEAN_MOTION_DOT = .802E-5
MEAN_MOTION_DDOT = 0

CCSDS_OMM_VERS = 2.0
CREATION_DATE  = 
ORIGINATOR     = 

OBJECT_NAME    = SL-8 R/B
OBJECT_ID      = 1971-119B
CENTER_NAME    = EARTH
REF_FRAME      = TEME
TIME_SYSTEM    = UTC
MEAN_ELEMENT_THEORY = SGP/SGP4

EPOCH          = 2026-04-03T11:48:34.302816
MEAN_MOTION    = 14.38331306
ECCENTRICITY   = .05460475
INCLINATION    = 73.8841
RA_OF_ASC_NODE = 129.3429
ARG_OF_PERICENTER = 90.7186
MEAN_ANOMALY   = 275.6538

EPHEMERIS_TYPE = 0
CLASSIFICATION_TYPE = U
NORAD_CAT_ID   = 5730
ELEMENT_SET_NO = 999
REV_AT_EPOCH   = 65905
BSTAR          = .61310383E-3
MEAN_MOTION_DOT = .11745E-3
MEAN_MOTION_DDOT = 0

CCSDS_OMM_VERS = 2.0
CREATION_DATE  = 
ORIGINATOR     = 

OBJECT_NAME    = OAO 3 (COPERNICUS)
OBJECT_ID      = 1972-065A
CENTER_NAME    = EARTH
REF_FRAME      = TEME
TIME_SYSTEM    = UTC
MEAN_ELEMENT_THEORY = SGP/SGP4

EPOCH          = 2026-04-03T11:36:16.936704
MEAN_MOTION    = 14.60019052
ECCENTRICITY   = .00066686
INCLINATION    = 35.0046
RA_OF_ASC_NODE = 156.0505
ARG_OF_PERICENTER = 358.3210
MEAN_ANOMALY   = 18.8399

EPHEMERIS_TYPE = 0
CLASSIFICATION_TYPE = U
NORAD_CAT_ID   = 6153
ELEMENT_SET_NO = 999
REV_AT_EPOCH   = 84982
BSTAR          = .11585483E-3
MEAN_MOTION_DOT = .544E-5
MEAN_MOTION_DDOT = 0

