ATLAS CENTAUR 2         
1 00694U 63047A   26093.92409063  .00004583  00000+0  54845-3 0  9990
2 00694  30.3578  54.6075 0547136 302.6897  52.2071 14.12185138135195
THOR AGENA D R/B        
1 00733U 64002A   26093.91961123  .00000325  00000+0  13294-3 0  9998
2 00733  99.1209 108.6315 0032877 183.3063 176.7908 14.34034411241910
SL-3 R/B                
1 00877U 64053B   26093.80708083  .00000478  00000+0  11648-3 0  9995
2 00877  65.0757 257.5944 0080598 284.3220  74.8941 14.61387341270461
SL-8 R/B                
1 02802U 67045B   26093.90280747  .00000473  00000+0  13829-3 0  9990
2 02802  74.0103 301.0023 0065028 301.7406  57.7424 14.45643245 92660
SL-8 R/B                
1 03230U 68040B   26093.86443089  .00006725  00000+0  49357-3 0  9998
2 03230  74.0292 262.2423 0023329  75.7327 284.6451 15.03443489 93794
OAO 2                   
1 03597U 68110A   26093.20456574  .00000404  00000+0  11395-3 0  9992
2 03597  34.9922 128.3459 0005270  29.0054 331.0929 14.47322613 22656
ISIS 1                  
1 03669U 69009A   26093.67676998  .00000216  00000+0  14232-3 0  9999
2 03669  88.4493 152.5804 1707793  38.7564 332.4321 11.30420961351356
SERT 2                  
1 04327U 70009A   26093.80727412  .00000049  00000+0  12325-3 0  9991
2 04327  99.2793  35.5310 0005737  98.5044 316.2867 13.58732519783304
SL-3 R/B                
1 05118U 71028B   26093.89247739  .00072013  00000+0  76850-3 0  9993
2 05118  81.2384  20.8529 0015243 183.1018 177.0145 15.63520742992602
ASTEX 1                 
1 05560U 71089A   26093.72149679  .00000802  00000+0  20365-3 0  9994
2 05560  92.7083 159.8489 0015650   8.9309 351.2173 14.50797203865938
SL-8 R/B                
1 05730U 71119B   26093.49206369  .00011745  00000+0  61310-3 0  9994
2 05730  73.8841 129.3429 0546047  90.7186 275.6538 14.38331306659058
OAO 3 (COPERNICUS)      
1 06153U 72065A   26093.48352936  .00000544  00000+0  11585-3 0  9990
2 06153  35.0046 156.0505 0006668 358.3210  18.8399 14.60019052849822
